     2.10           NAVIGATION DATA                         RINEX VERSION / TYPE
Spider v7.5.1.8670  SMO                 2021 10 14 13:09    PGM / RUN BY / DATE 
    1.1176D-08  0.0000D+00 -5.9605D-08  0.0000D+00          ION ALPHA           
    9.0112D+04  0.0000D+00 -1.9661D+05  0.0000D+00          ION BETA            
   -9.313225746155D-10 0.000000000000D+00   589824     2179 DELTA-UTC: A0,A1,T,W
    18                                                      LEAP SECONDS        
                                                            END OF HEADER       
 1 21 10 13 22 00  0.0 5.401950329542D-04-1.080024958355D-11 0.000000000000D+00
    1.100000000000D+01 3.250000000000D+00 4.001952547128D-09 1.780774321770D+00
   -1.117587089539D-08 1.106676820200D-02 3.622844815254D-06 5.153674524307D+03
    3.384000000000D+05-1.825392246246D-07 3.414107815866D-01-6.891787052155D-08
    9.859717470751D-01 3.235000000000D+02 8.900351081862D-01-8.059264366977D-09
    1.082187950363D-10 1.000000000000D+00 2.179000000000D+03 0.000000000000D+00
    2.000000000000D+00 0.000000000000D+00 5.122274160385D-09 1.100000000000D+01
    3.311400000000D+05 0.000000000000D+00
 2 21 10 14 06 00  0.0-6.373384967446D-04-1.818989403546D-12 0.000000000000D+00
    7.900000000000D+01 2.068750000000D+01 4.741983250511D-09-5.772950354554D-02
    1.095235347748D-06 2.034296467900D-02 3.682449460030D-06 5.153773675919D+03
    3.672000000000D+05-3.408640623093D-07 2.545300166883D-01-2.980232238770D-08
    9.644850280671D-01 3.150000000000D+02-1.488014909977D+00-8.751793068029D-09
    9.071806500449D-11 1.000000000000D+00 2.179000000000D+03 0.000000000000D+00
    2.000000000000D+00 0.000000000000D+00-1.769512891769D-08 7.900000000000D+01
    3.599400000000D+05 0.000000000000D+00
 3 21 10 14 12 00  0.0-3.245510160923D-04-1.375610736432D-11 0.000000000000D+00
    4.500000000000D+01-1.051250000000D+02 4.350538151954D-09 1.696352417876D+00
   -5.517154932022D-06 3.881612210535D-03 5.790963768959D-06 5.153758607864D+03
    3.888000000000D+05-6.705522537231D-08 1.377225837293D+00-2.793967723846D-08
    9.706510083335D-01 2.733437500000D+02 9.997648818889D-01-8.069621415530D-09
   -1.382200465194D-10 1.000000000000D+00 2.179000000000D+03 0.000000000000D+00
    2.000000000000D+00 0.000000000000D+00 1.862645149231D-09 4.500000000000D+01
    3.815400000000D+05 0.000000000000D+00
 4 21 10 14 12 00  0.0-2.036546356976D-04 4.547473508865D-13 0.000000000000D+00
    1.660000000000D+02-3.534375000000D+01 4.379468343529D-09-1.620436054283D+00
   -1.868233084679D-06 1.451635849662D-03 1.038238406181D-05 5.153688278198D+03
    3.888000000000D+05 1.490116119385D-08 2.458546016081D+00 0.000000000000D+00
    9.608908885053D-01 1.795937500000D+02-3.098800651063D+00-7.792467116019D-09
    1.696499191128D-10 1.000000000000D+00 2.179000000000D+03 0.000000000000D+00
    2.000000000000D+00 0.000000000000D+00-4.190951585770D-09 9.340000000000D+02
    3.815400000000D+05 0.000000000000D+00
 5 21 10 14 08 00  0.0-5.761161446571D-05-1.250555214938D-12 0.000000000000D+00
    8.100000000000D+01-1.064687500000D+02 4.604477688019D-09-2.918229060594D+00
   -5.468726158142D-06 6.054334691726D-03 6.228685379028D-06 5.153604944229D+03
    3.744000000000D+05 8.195638656616D-08 1.338601460158D+00-4.842877388000D-08
    9.576431108909D-01 2.570625000000D+02 1.009065780029D+00-8.142482244011D-09
   -1.392915227605D-10 1.000000000000D+00 2.179000000000D+03 0.000000000000D+00
    2.000000000000D+00 0.000000000000D+00-1.117587089539D-08 8.100000000000D+01
    3.671400000000D+05 0.000000000000D+00
 6 21 10 14 03 59 44.0 9.417813271284D-05 8.185452315956D-12 0.000000000000D+00
    7.000000000000D+00 8.375000000000D+00 4.153744459501D-09-9.801591902617D-01
    4.675239324570D-07 2.245923387818D-03 3.268942236900D-06 5.153593368530D+03
    3.599840000000D+05-4.842877388000D-08 3.329862693918D-01 2.607703208923D-08
    9.853921199142D-01 3.310000000000D+02-1.032894562124D+00-8.168197673797D-09
    7.643175675698D-11 1.000000000000D+00 2.179000000000D+03 0.000000000000D+00
    2.000000000000D+00 0.000000000000D+00 3.725290298462D-09 7.000000000000D+00
    3.527100000000D+05 0.000000000000D+00
 7 21 10 13 21 59 44.0 2.619298174977D-04 6.252776074689D-12 0.000000000000D+00
    8.000000000000D+01 2.309375000000D+01 5.207716924360D-09 1.153939174770D+00
    1.341104507446D-06 1.527681748848D-02 7.225200533867D-06 5.153726848602D+03
    3.383840000000D+05-1.527369022369D-07-2.804404612834D+00 2.104789018631D-07
    9.516050642734D-01 2.400312500000D+02-2.303940880660D+00-8.495710801526D-09
   -9.357532804177D-11 1.000000000000D+00 2.179000000000D+03 0.000000000000D+00
    2.000000000000D+00 0.000000000000D+00-1.117587089539D-08 8.000000000000D+01
    3.311100000000D+05 0.000000000000D+00
 8 21 10 13 20 00  0.0-3.998726606369D-05-1.364242052659D-12 0.000000000000D+00
    8.600000000000D+01 7.075000000000D+01 4.171245127083D-09 3.066201593158D+00
    3.719702363014D-06 6.598991341889D-03 7.299706339836D-06 5.153668638229D+03
    3.312000000000D+05-7.450580596924D-08-7.353623961898D-01-1.862645149231D-08
    9.660744168772D-01 2.422187500000D+02 5.386327146146D-02-7.909972232767D-09
   -1.571493976615D-11 1.000000000000D+00 2.179000000000D+03 0.000000000000D+00
    2.000000000000D+00 0.000000000000D+00 5.122274160385D-09 8.600000000000D+01
    3.239400000000D+05 0.000000000000D+00
 9 21 10 14 02 00  0.0-3.617983311415D-04-1.136868377216D-13 0.000000000000D+00
    1.050000000000D+02-3.696875000000D+01 4.535903208591D-09 2.583532389808D-01
   -2.041459083557D-06 2.261869725771D-03 1.008063554764D-05 5.153694686890D+03
    3.528000000000D+05 7.450580596924D-09 2.406879403891D+00 1.676380634308D-08
    9.537738666585D-01 1.795000000000D+02 1.819279462303D+00-7.953188330134D-09
    3.375140722461D-10 1.000000000000D+00 2.179000000000D+03 0.000000000000D+00
    2.000000000000D+00 0.000000000000D+00 1.396983861923D-09 1.050000000000D+02
    3.455400000000D+05 0.000000000000D+00
10 21 10 14 12 00  0.0-2.237190492451D-04-8.071765478235D-12 0.000000000000D+00
    4.100000000000D+01-9.768750000000D+01 4.468757364151D-09 8.944425263329D-01
   -4.928559064865D-06 7.058041403070D-03 6.398186087608D-06 5.153681491852D+03
    3.888000000000D+05 2.980232238770D-08 1.374394972313D+00 7.636845111847D-08
    9.705007286108D-01 2.608125000000D+02-2.584836538851D+00-8.241414661825D-09
   -2.321525333082D-10 1.000000000000D+00 2.179000000000D+03 0.000000000000D+00
    2.000000000000D+00 0.000000000000D+00 2.328306436539D-09 4.100000000000D+01
    3.815400000000D+05 0.000000000000D+00
11 20 11 10 20 00  0.0-1.123142428696D-04 1.057287590811D-11 0.000000000000D+00
    8.000000000000D+01 5.512500000000D+01 5.503800526441D-09 7.844506152654D-01
    2.687796950340D-06 1.562922308221D-02 9.331852197647D-06 5.153726993561D+03
    2.448000000000D+05 1.490116119385D-08-4.162866871200D-01-3.017485141754D-07
    9.140110964138D-01 1.751875000000D+02 2.066060783747D+00-8.848583199494D-09
    2.839403989707D-10 1.000000000000D+00 2.131000000000D+03 0.000000000000D+00
    2.000000000000D+00 1.000000000000D+00-1.257285475731D-08 8.000000000000D+01
    2.375400000000D+05 1.000000000000D+00
12 21 10 14 10 00  0.0-1.113647595048D-04-5.456968210638D-12 0.000000000000D+00
    5.700000000000D+01 2.790625000000D+01 4.331251801659D-09 4.644149744621D-01
    1.229345798492D-06 8.263878058642D-03 7.722526788712D-06 5.153665470123D+03
    3.816000000000D+05-6.891787052155D-08-1.692843453793D+00 2.235174179077D-08
    9.716034162794D-01 2.379062500000D+02 1.228803780724D+00-8.032834841742D-09
   -3.643008950061D-10 1.000000000000D+00 2.179000000000D+03 0.000000000000D+00
    2.000000000000D+00 0.000000000000D+00-1.257285475731D-08 5.700000000000D+01
    3.743400000000D+05 0.000000000000D+00
13 21 10 14 06 00  0.0 1.993267796934D-04 5.570655048359D-12 0.000000000000D+00
    8.000000000000D+01-2.518750000000D+01 4.208746684498D-09 1.382062595563D+00
   -1.307576894760D-06 5.567098734900D-03 1.022033393383D-05 5.153683912277D+03
    3.672000000000D+05-6.705522537231D-08 2.557603637086D+00 3.725290298462D-08
    9.685060866231D-01 1.867500000000D+02 9.722311061509D-01-7.814968228104D-09
    2.971552448550D-10 1.000000000000D+00 2.179000000000D+03 0.000000000000D+00
    2.000000000000D+00 0.000000000000D+00-1.117587089539D-08 8.000000000000D+01
    3.599400000000D+05 0.000000000000D+00
14 21 10 14 00 00  0.0-1.837220042944D-05-7.617018127348D-12 0.000000000000D+00
    2.020000000000D+02 2.412500000000D+01 4.799842745484D-09 1.426708543932D+00
    1.342967152596D-06 1.127678202465D-03 7.936730980873D-06 5.153644054413D+03
    3.456000000000D+05 7.450580596924D-09-1.721913678262D+00 0.000000000000D+00
    9.550702432178D-01 2.226875000000D+02 3.139027207300D+00-8.151411101665D-09
   -4.553760979409D-10 1.000000000000D+00 2.179000000000D+03 0.000000000000D+00
    2.000000000000D+00 0.000000000000D+00-7.916241884232D-09 4.580000000000D+02
    3.383400000000D+05 0.000000000000D+00
15 21 10 14 10 00  0.0-1.140511594713D-04 2.728484105319D-12 0.000000000000D+00
    9.900000000000D+01-4.603125000000D+01 4.975921452655D-09 3.127895376483D+00
   -2.421438694000D-06 1.378008141182D-02 1.055561006069D-05 5.153693094254D+03
    3.816000000000D+05 5.774199962616D-08 2.303895928113D+00-1.154839992523D-07
    9.294660564263D-01 1.565625000000D+02 1.040344096473D+00-7.963189219140D-09
    1.964367557505D-10 1.000000000000D+00 2.179000000000D+03 0.000000000000D+00
    2.800000000000D+00 0.000000000000D+00-1.071020960808D-08 9.900000000000D+01
    3.743400000000D+05 0.000000000000D+00
